GSAT0201 (GALILEO 5)    
1 40128U 14050A   23283.99460598 -.00000053  00000+0  00000+0 0  9990
2 40128  49.9026 313.0996 1607671 141.7636 230.8261  1.85519531 62079
GSAT0202 (GALILEO 6)    
1 40129U 14050B   23284.25385758 -.00000051  00000+0  00000+0 0  9993
2 40129  49.9214 312.1614 1605578 142.5840 229.7733  1.85520210 62275
IRNSS-1C                
1 40269U 14061A   23283.80845307 -.00000160  00000+0  00000+0 0  9992
2 40269   4.0501 111.5956 0019679   6.3114 275.3138  1.00271678 32857
NAVSTAR 72 (USA 258)    
1 40294U 14068A   23282.22123292 -.00000009  00000+0  00000+0 0  9996
2 40294  56.2087  69.0933 0049080  62.7125 297.7952  2.00574174 65511
COSMOS 2501             
1 40315U 14075A   23283.54867162 -.00000023  00000+0  00000+0 0  9991
2 40315  63.6366 224.3982 0019366 209.8186 150.0586  2.13101315 68954
NAVSTAR 73 (USA 260)    
1 40534U 15013A   23284.35454357 -.00000024  00000+0  00000+0 0  9996
2 40534  53.4480 244.7560 0082265  25.9547 334.4283  2.00552455 62592
GSAT0203 (GALILEO 7)    
1 40544U 15017A   23281.09804201 -.00000108  00000+0  00000+0 0  9999
2 40544  56.9071   8.3544 0003651 231.0665 128.9305  1.70476562 52440
GSAT0204 (GALILEO 8)    
1 40545U 15017B   23283.11153745 -.00000102  00000+0  00000+0 0  9999
2 40545  56.9140   8.3141 0004385 223.2146 136.7834  1.70475832 15524
IRNSS-1D                
1 40547U 15018A   23283.84216045 -.00000295  00000+0  00000+0 0  9998
2 40547  28.0007 257.0179 0018989 187.6363 349.4879  1.00271317 31414
BEIDOU-3S IGSO-1S       
1 40549U 15019A   23283.88142749 -.00000116  00000+0  00000+0 0  9996
2 40549  51.0345 307.1405 0040704 197.3018 282.8478  1.00249700 31237
NAVSTAR 74 (USA 262)    
1 40730U 15033A   23284.01782153 -.00000029  00000+0  00000+0 0  9992
2 40730  54.8155 307.2406 0086649  13.9890 346.3030  2.00553373 60350
BEIDOU-3S M2S           
1 40748U 15037A   23284.38205995 -.00000074  00000+0  00000+0 0  9999
2 40748  55.6402 335.5124 0012498 246.5191 113.4174  1.86233306 55870
BEIDOU-3S M1S           
1 40749U 15037B   23283.04136017 -.00000080  00000+0  00000+0 0  9997
2 40749  55.6440 335.5442 0004670 295.7181  64.2983  1.86233062 55852
GSAT0205 (GALILEO 9)    
1 40889U 15045A   23282.87950956 -.00000003  00000+0  00000+0 0  9992
2 40889  55.3457 248.7146 0004189   5.0403 354.9329  1.70473164 50289
GSAT0206 (GALILEO 10)   
1 40890U 15045B   23284.27335226 -.00000004  00000+0  00000+0 0  9998
2 40890  55.3442 248.6716 0002727 341.2966  18.6573  1.70473189 50330
BEIDOU-3S IGSO-2S       
1 40938U 15053A   23283.98919475 -.00000124  00000+0  00000+0 0  9994
2 40938  50.7555 270.3179 0047513 194.7929   6.9487  1.00275114 29515
NAVSTAR 75 (USA 265)    
1 41019U 15062A   23283.57055000 -.00000010  00000+0  00000+0 0  9999
2 41019  56.1930  68.8912 0090745 221.3197 137.9988  2.00562289 58164
GSAT-15                 
1 41028U 15065A   23284.47784778 -.00000258  00000+0  00000+0 0  9997
2 41028   0.0456  93.2556 0002309 100.7339  91.3735  1.00271984 29033
GSAT0209 (GALILEO 12)   
1 41174U 15079A   23283.85840921  .00000058  00000+0  00000+0 0  9995
2 41174  55.3147 128.1952 0002152 344.6310  15.4609  1.70474309 48645
GSAT0208 (GALILEO 11)   
1 41175U 15079B   23284.07804402  .00000059  00000+0  00000+0 0  9996
2 41175  55.3131 128.1872 0001738 356.5653   3.5327  1.70474195 48649
IRNSS-1E                
1 41241U 16003A   23284.33835054 -.00000268  00000+0  00000+0 0  9997
2 41241  31.0628  77.2360 0021144 179.8958 356.2401  1.00274796 28375
NAVSTAR 76 (USA 266)    
1 41328U 16007A   23283.16159088  .00000054  00000+0  00000+0 0  9995
2 41328  55.0296 128.4265 0071972 233.5829 125.8378  2.00574136 56163
COSMOS 2514             
1 41330U 16008A   23283.53015260 -.00000067  00000+0  00000+0 0  9998
2 41330  65.4920 346.4519 0012431 213.8210 146.1646  2.13102692 59726
IRNSS-1F                
1 41384U 16015A   23284.25063178  .00000162  00000+0  00000+0 0  9991
2 41384   3.0087 128.0719 0019164 173.4549 200.7349  1.00267894 27834
BEIDOU-2 IGSO-6         
1 41434U 16021A   23283.72327679 -.00000152  00000+0  00000+0 0  9994
2 41434  58.8087  47.8969 0048554 219.1382 109.2360  1.00276226 27645
IRNSS-1G                
1 41469U 16027A   23283.96021487 -.00000332  00000+0  00000+0 0  9992
2 41469   2.8966 129.6681 0001231   0.1813   4.7317  1.00272362 27341
GSAT0211 (GALILEO 14)   
1 41549U 16030A   23284.19904221 -.00000004  00000+0  00000+0 0  9993
2 41549  55.4917 248.6580 0004062 321.5602  38.3751  1.70473218 45942
GSAT0210 (GALILEO 13)   
1 41550U 16030B   23282.14419682 -.00000002  00000+0  00000+0 0  9998
2 41550  55.4919 248.7155 0003753 286.7910  73.1393  1.70473232 45906
COSMOS 2516             
1 41554U 16032A   23283.17460901 -.00000022  00000+0  00000+0 0  9990
2 41554  63.8631 224.8220 0015205 213.7102 146.1807  2.13106436 57327
BEIDOU-2 G7             
1 41586U 16037A   23283.85083216 -.00000353  00000+0  00000+0 0  9992
2 41586   1.9567  68.8834 0006745 337.0330  30.0856  1.00267591 26957
EUTELSAT 117 WEST B     
1 41589U 16038B   23283.87387737 -.00000013  00000+0  00000+0 0  9996
2 41589   0.0181  56.1202 0000209  55.8917 104.8074  1.00271974 26835
GSAT0207 (GALILEO 15)   
1 41859U 16069A   23282.39247064  .00000045  00000+0  00000+0 0  9998
2 41859  54.9772 128.2987 0001959 314.3400  45.7365  1.70474243 42669
GSAT0212 (GALILEO 16)   
1 41860U 16069B   23284.00684483  .00000058  00000+0  00000+0 0  9994
2 41860  54.9758 128.2508 0001949  22.7359 337.3717  1.70474450 42948
GSAT0213 (GALILEO 17)   
1 41861U 16069C   23283.20001690  .00000052  00000+0  00000+0 0  9993
2 41861  54.9773 128.2792 0001894 265.1494  94.9249  1.70473117 42926
GSAT0214 (GALILEO 18)   
1 41862U 16069D   23283.93387841  .00000057  00000+0  00000+0 0  9994
2 41862  54.9759 128.2528 0000925 267.2767  92.8113  1.70473034 42934
SES-15                  
1 42709U 17026A   23283.50211602  .00000057  00000+0  00000+0 0  9993
2 42709   0.0342  44.2782 0000353 170.6646 215.5155  1.00268908 24353
QZS-2 (MICHIBIKI-2)     
1 42738U 17028A   23283.79632760 -.00000203  00000+0  00000+0 0  9994
2 42738  40.9866 257.3475 0746813 270.5754 277.2975  1.00255112 23305
QZS-3 (MICHIBIKI-3)     
1 42917U 17048A   23284.02063285 -.00000349  00000+0  00000+0 0  9993
2 42917   0.0594 212.3640 0001552 350.2062 311.2429  1.00276617 22547
COSMOS 2522             
1 42939U 17055A   23284.31023179 -.00000020  00000+0  00000+0 0  9991
2 42939  64.0971 225.3189 0008566 242.6565 117.2425  2.13102038 47093
QZS-4 (MICHIBIKI-4)     
1 42965U 17062A   23282.55330887 -.00000333  00000+0  00000+0 0  9996
2 42965  40.6214 355.9974 0749760 269.9810  90.6576  1.00271848 21978
BEIDOU-3 M1             
1 43001U 17069A   23282.04487633  .00000042  00000+0  00000+0 0  9997
2 43001  55.8698  95.6667 0007147 298.3077  61.6639  1.86231741 40317
BEIDOU-3 M2             
1 43002U 17069B   23283.05558201  .00000048  00000+0  00000+0 0  9996
2 43002  55.8700  95.6694 0005369 332.9374  27.0791  1.86231251 40323
GSAT0215 (GALILEO 19)   
1 43055U 17079A   23282.07593476 -.00000002  00000+0  00000+0 0  9990
2 43055  55.4692 248.5416 0003347 278.7434  81.1902  1.70473958 36242
GSAT0216 (GALILEO 20)   
1 43056U 17079B   23283.54098875 -.00000004  00000+0  00000+0 0  9999
2 43056  55.4689 248.5012 0004893 282.9388  76.9730  1.70474053 36252
GSAT0217 (GALILEO 21)   
1 43057U 17079C   23282.00161132 -.00000002  00000+0  00000+0 0  9995
2 43057  55.4676 248.5425 0004432 294.3072  65.6183  1.70474055 36241
GSAT0218 (GALILEO 22)   
1 43058U 17079D   23283.39482533 -.00000004  00000+0  00000+0 0  9992
2 43058  55.4671 248.5018 0005314 279.1926  80.7143  1.70474000 36260
BEIDOU-3 M7             
1 43107U 18003A   23283.34322699 -.00000081  00000+0  00000+0 0  9991
2 43107  55.0973 336.2484 0002753  72.2223 287.8722  1.86232635 39083
BEIDOU-3 M8             
1 43108U 18003B   23283.81858293 -.00000079  00000+0  00000+0 0  9995
2 43108  55.0900 336.2189 0004677 250.1883 109.8270  1.86231086 39105
BEIDOU-3 M4             
1 43207U 18018A   23283.18680014  .00000048  00000+0  00000+0 0  9990
2 43207  55.8295  95.7265 0004207  20.6905 339.3711  1.86231677 38471
BEIDOU-3 M3             
1 43208U 18018B   23283.25346195  .00000049  00000+0  00000+0 0  9999
2 43208  55.8288  95.7286 0005019 316.3931  43.6118  1.86231654 38474
BEIDOU-3 M9             
1 43245U 18029A   23283.47617594 -.00000077  00000+0  00000+0 0  9992
2 43245  54.9900 333.9745 0001832 238.7789 121.2685  1.86232913 37638
BEIDOU-3 M10            
1 43246U 18029B   23283.94310204 -.00000075  00000+0  00000+0 0  9991
2 43246  54.9870 333.9869 0003067 341.7967  18.2589  1.86233023 37638
IRNSS-1I                
1 43286U 18035A   23283.53883957  .00000116  00000+0  00000+0 0  9992
2 43286  29.3348  89.6126 0021133 176.9129   1.3789  1.00274039 20232
COSMOS 2527             
1 43508U 18053A   23283.33046986  .00000081  00000+0  00000+0 0  9991
2 43508  65.1064 106.7421 0007559 213.2755 146.7373  2.13102518 41375
BEIDOU-2 IGSO-7         
1 43539U 18057A   23283.67258803 -.00000136  00000+0  00000+0 0  9991
2 43539  55.1173 171.5409 0063742 230.3198 333.1613  1.00272839 19319
GSAT0221 (GALILEO 25)   
1 43564U 18060A   23282.70805994 -.00000103  00000+0  00000+0 0  9999
2 43564  57.2884   8.2479 0003648 255.1165 104.8749  1.70476387 32432
GSAT0222 (GALILEO 26)   
1 43565U 18060B   23281.75302228 -.00000106  00000+0  00000+0 0  9999
2 43565  57.2920   8.2745 0004252 224.4666 135.5296  1.70476095 32464
GSAT0219 (GALILEO 23)   
1 43566U 18060C   23281.97530601 -.00000106  00000+0  00000+0 0  9992
2 43566  57.2911   8.2708 0003064 259.3855 100.6106  1.70476335 32449
GSAT0220 (GALILEO 24)   
1 43567U 18060D   23279.26282748 -.00000111  00000+0  00000+0 0  9994
2 43567  57.2907   8.3437 0003304 255.3398 104.6528  1.70476293 32388
BEIDOU-3 M5             
1 43581U 18062A   23284.16327930 -.00000035  00000+0  00000+0 0  9995
2 43581  54.1699 215.6575 0004159 292.7307  67.2145  1.86232046 35383
